{"type": "FeatureCollection", "features": [ {"type": "Feature", "properties": {"norad_id": 40534, "name": "GPS BIIF-9  (PRN 26)", "group": "gps-ops", "lat": 51.965473294263504, "lon": -41.62980880090651, "alt_km": 20037.681541909413, "timestamp": "2025-12-21T16:47:54.997138+00:00", "meta": {"OBJECT_NAME": "GPS BIIF-9  (PRN 26)", "OBJECT_ID": "2015-013A", "EPOCH": "2025-12-21T01:33:43.050240", "MEAN_MOTION": 2.00562033, "ECCENTRICITY": 0.0107387, "INCLINATION": 53.1966, "RA_OF_ASC_NODE": 211.5453, "ARG_OF_PERICENTER": 38.6862, "MEAN_ANOMALY": 322.1684, "EPHEMERIS_TYPE": 0, "CLASSIFICATION_TYPE": "U", "NORAD_CAT_ID": 40534, "ELEMENT_SET_NO": 999, "REV_AT_EPOCH": 7825, "BSTAR": 0, "MEAN_MOTION_DOT": 7.9e-07, "MEAN_MOTION_DDOT": 0}, "tle": {"line1": "1 40534U 15013A   25355.06508160  .00000079  00000+0  00000+0 0  9996", "line2": "2 40534  53.1966 211.5453 0107387  38.6862 322.1684  2.00562033 78257"}}, "geometry": {"type": "Point", "coordinates": [-41.62980880090651, 51.965473294263504]}}, {"type": "Feature", "properties": {"norad_id": 40730, "name": "GPS BIIF-10 (PRN 08)", "group": "gps-ops", "lat": -14.782333167211643, "lon": -96.59649155004674, "alt_km": 19974.23911620544, "timestamp": "2025-12-21T16:47:54.997149+00:00", "meta": {"OBJECT_NAME": "GPS BIIF-10 (PRN 08)", "OBJECT_ID": "2015-033A", "EPOCH": "2025-12-20T05:30:00.269856", "MEAN_MOTION": 2.0056532, "ECCENTRICITY": 0.01114012, "INCLINATION": 54.1241, "RA_OF_ASC_NODE": 274.4647, "ARG_OF_PERICENTER": 26.9904, "MEAN_ANOMALY": 333.6219, "EPHEMERIS_TYPE": 0, "CLASSIFICATION_TYPE": "U", "NORAD_CAT_ID": 40730, "ELEMENT_SET_NO": 999, "REV_AT_EPOCH": 7640, "BSTAR": 0, "MEAN_MOTION_DOT": -1.9e-07, "MEAN_MOTION_DDOT": 0}, "tle": {"line1": "1 40730U 15033A   25354.22916979 -.00000019  00000+0  00000+0 0  9999", "line2": "2 40730  54.1241 274.4647 0111401  26.9904 333.6219  2.00565320 76402"}}, "geometry": {"type": "Point", "coordinates": [-96.59649155004674, -14.782333167211643]}}, {"type": "Feature", "properties": {"norad_id": 41019, "name": "GPS BIIF-11 (PRN 10)", "group": "gps-ops", "lat": -46.880475772551804, "lon": -6.577736972593248, "alt_km": 20078.950518507365, "timestamp": "2025-12-21T16:47:54.997160+00:00", "meta": {"OBJECT_NAME": "GPS BIIF-11 (PRN 10)", "OBJECT_ID": "2015-062A", "EPOCH": "2025-12-20T06:55:31.863072", "MEAN_MOTION": 2.00567218, "ECCENTRICITY": 0.0111019, "INCLINATION": 56.8376, "RA_OF_ASC_NODE": 37.7103, "ARG_OF_PERICENTER": 230.1421, "MEAN_ANOMALY": 128.9419, "EPHEMERIS_TYPE": 0, "CLASSIFICATION_TYPE": "U", "NORAD_CAT_ID": 41019, "ELEMENT_SET_NO": 999, "REV_AT_EPOCH": 7424, "BSTAR": 0, "MEAN_MOTION_DOT": -5.7e-07, "MEAN_MOTION_DDOT": 0}, "tle": {"line1": "1 41019U 15062A   25354.28856323 -.00000057  00000+0  00000+0 0  9996", "line2": "2 41019  56.8376  37.7103 0111019 230.1421 128.9419  2.00567218 74241"}}, "geometry": {"type": "Point", "coordinates": [-6.577736972593248, -46.880475772551804]}}, {"type": "Feature", "properties": {"norad_id": 41328, "name": "GPS BIIF-12 (PRN 32)", "group": "gps-ops", "lat": -44.50822972183358, "lon": -40.86607260562142, "alt_km": 19942.97956865614, "timestamp": "2025-12-21T16:47:54.997172+00:00", "meta": {"OBJECT_NAME": "GPS BIIF-12 (PRN 32)", "OBJECT_ID": "2016-007A", "EPOCH": "2025-12-21T08:50:32.363232", "MEAN_MOTION": 2.00560305, "ECCENTRICITY": 0.0092584, "INCLINATION": 55.4109, "RA_OF_ASC_NODE": 96.5146, "ARG_OF_PERICENTER": 243.788, "MEAN_ANOMALY": 115.2562, "EPHEMERIS_TYPE": 0, "CLASSIFICATION_TYPE": "U", "NORAD_CAT_ID": 41328, "ELEMENT_SET_NO": 999, "REV_AT_EPOCH": 7227, "BSTAR": 0, "MEAN_MOTION_DOT": -8e-08, "MEAN_MOTION_DDOT": 0}, "tle": {"line1": "1 41328U 16007A   25355.36843013 -.00000008  00000+0  00000+0 0  9997", "line2": "2 41328  55.4109  96.5146 0092584 243.7880 115.2562  2.00560305 72276"}}, "geometry": {"type": "Point", "coordinates": [-40.86607260562142, -44.50822972183358]}}, {"type": "Feature", "properties": {"norad_id": 43873, "name": "GPS BIII-1  (PRN 04)", "group": "gps-ops", "lat": 37.47509648828674, "lon": -112.47790153973911, "alt_km": 20132.612342359123, "timestamp": "2025-12-21T16:47:54.997183+00:00", "meta": {"OBJECT_NAME": "GPS BIII-1  (PRN 04)", "OBJECT_ID": "2018-109A", "EPOCH": "2025-12-20T14:49:36.231744", "MEAN_MOTION": 2.00553966, "ECCENTRICITY": 0.0037575, "INCLINATION": 55.571, "RA_OF_ASC_NODE": 99.2363, "ARG_OF_PERICENTER": 195.36, "MEAN_ANOMALY": 236.122, "EPHEMERIS_TYPE": 0, "CLASSIFICATION_TYPE": "U", "NORAD_CAT_ID": 43873, "ELEMENT_SET_NO": 999, "REV_AT_EPOCH": 5149, "BSTAR": 0, "MEAN_MOTION_DOT": -1.2e-07, "MEAN_MOTION_DDOT": 0}, "tle": {"line1": "1 43873U 18109A   25354.61778046 -.00000012  00000+0  00000+0 0  9994", "line2": "2 43873  55.5710  99.2363 0037575 195.3600 236.1220  2.00553966 51494"}}, "geometry": {"type": "Point", "coordinates": [-112.47790153973911, 37.47509648828674]}}, {"type": "Feature", "properties": {"norad_id": 44506, "name": "GPS BIII-2  (PRN 18)", "group": "gps-ops", "lat": 24.426865961849177, "lon": -3.7722123385562627, "alt_km": 20328.88463298551, "timestamp": "2025-12-21T16:47:54.997194+00:00", "meta": {"OBJECT_NAME": "GPS BIII-2  (PRN 18)", "OBJECT_ID": "2019-056A", "EPOCH": "2025-12-21T09:31:28.987392", "MEAN_MOTION": 2.00566631, "ECCENTRICITY": 0.0057733, "INCLINATION": 55.7184, "RA_OF_ASC_NODE": 338.2094, "ARG_OF_PERICENTER": 198.5612, "MEAN_ANOMALY": 332.7674, "EPHEMERIS_TYPE": 0, "CLASSIFICATION_TYPE": "U", "NORAD_CAT_ID": 44506, "ELEMENT_SET_NO": 999, "REV_AT_EPOCH": 4650, "BSTAR": 0, "MEAN_MOTION_DOT": -7.2e-07, "MEAN_MOTION_DDOT": 0}, "tle": {"line1": "1 44506U 19056A   25355.39686328 -.00000072  00000+0  00000+0 0  9993", "line2": "2 44506  55.7184 338.2094 0057733 198.5612 332.7674  2.00566631 46503"}}, "geometry": {"type": "Point", "coordinates": [-3.7722123385562627, 24.426865961849177]}}, {"type": "Feature", "properties": {"norad_id": 45854, "name": "GPS BIII-3  (PRN 23)", "group": "gps-ops", "lat": -21.014800565804425, "lon": 21.154525279641557, "alt_km": 20289.799801783996, "timestamp": "2025-12-21T16:47:54.997205+00:00", "meta": {"OBJECT_NAME": "GPS BIII-3  (PRN 23)", "OBJECT_ID": "2020-041A", "EPOCH": "2025-12-20T05:44:36.632832", "MEAN_MOTION": 2.00561934, "ECCENTRICITY": 0.00606224, "INCLINATION": 56.5518, "RA_OF_ASC_NODE": 35.8938, "ARG_OF_PERICENTER": 203.675, "MEAN_ANOMALY": 155.7759, "EPHEMERIS_TYPE": 0, "CLASSIFICATION_TYPE": "U", "NORAD_CAT_ID": 45854, "ELEMENT_SET_NO": 999, "REV_AT_EPOCH": 4044, "BSTAR": 0, "MEAN_MOTION_DOT": -5.8e-07, "MEAN_MOTION_DDOT": 0}, "tle": {"line1": "1 45854U 20041A   25354.23931288 -.00000058  00000+0  00000+0 0  9990", "line2": "2 45854  56.5518  35.8938 0060622 203.6750 155.7759  2.00561934 40444"}}, "geometry": {"type": "Point", "coordinates": [21.154525279641557, -21.014800565804425]}}, {"type": "Feature", "properties": {"norad_id": 46826, "name": "GPS BIII-4  (PRN 14)", "group": "gps-ops", "lat": -40.91156497912106, "lon": 178.9697580472119, "alt_km": 20222.5811465073, "timestamp": "2025-12-21T16:47:54.997217+00:00", "meta": {"OBJECT_NAME": "GPS BIII-4  (PRN 14)", "OBJECT_ID": "2020-078A", "EPOCH": "2025-12-16T01:06:13.902336", "MEAN_MOTION": 2.00566891, "ECCENTRICITY": 0.0064755, "INCLINATION": 54.0145, "RA_OF_ASC_NODE": 218.2068, "ARG_OF_PERICENTER": 203.3828, "MEAN_ANOMALY": 339.3936, "EPHEMERIS_TYPE": 0, "CLASSIFICATION_TYPE": "U", "NORAD_CAT_ID": 46826, "ELEMENT_SET_NO": 999, "REV_AT_EPOCH": 3783, "BSTAR": 0, "MEAN_MOTION_DOT": 6.7e-07, "MEAN_MOTION_DDOT": 0}, "tle": {"line1": "1 46826U 20078A   25350.04599424  .00000067  00000+0  00000+0 0  9996", "line2": "2 46826  54.0145 218.2068 0064755 203.3828 339.3936  2.00566891 37831"}}, "geometry": {"type": "Point", "coordinates": [178.9697580472119, -40.91156497912106]}}, {"type": "Feature", "properties": {"norad_id": 48859, "name": "GPS BIII-5  (PRN 11)", "group": "gps-ops", "lat": 39.053155546130995, "lon": 125.3141991093053, "alt_km": 20193.967344407345, "timestamp": "2025-12-21T16:47:54.997229+00:00", "meta": {"OBJECT_NAME": "GPS BIII-5  (PRN 11)", "OBJECT_ID": "2021-054A", "EPOCH": "2025-12-08T04:14:32.423424", "MEAN_MOTION": 2.00553627, "ECCENTRICITY": 0.0024678, "INCLINATION": 55.2581, "RA_OF_ASC_NODE": 340.1367, "ARG_OF_PERICENTER": 233.3993, "MEAN_ANOMALY": 212.8594, "EPHEMERIS_TYPE": 0, "CLASSIFICATION_TYPE": "U", "NORAD_CAT_ID": 48859, "ELEMENT_SET_NO": 999, "REV_AT_EPOCH": 3292, "BSTAR": 0, "MEAN_MOTION_DOT": -8.6e-07, "MEAN_MOTION_DDOT": 0}, "tle": {"line1": "1 48859U 21054A   25342.17676416 -.00000086  00000+0  00000+0 0  9993", "line2": "2 48859  55.2581 340.1367 0024678 233.3993 212.8594  2.00553627 32922"}}, "geometry": {"type": "Point", "coordinates": [125.3141991093053, 39.053155546130995]}}, {"type": "Feature", "properties": {"norad_id": 55268, "name": "GPS BIII-6  (PRN 28)", "group": "gps-ops", "lat": 5.956193080845935, "lon": -28.693431818214478, "alt_km": 20192.342650745948, "timestamp": "2025-12-21T16:47:54.997240+00:00", "meta": {"OBJECT_NAME": "GPS BIII-6  (PRN 28)", "OBJECT_ID": "2023-009A", "EPOCH": "2025-12-21T11:01:56.819424", "MEAN_MOTION": 2.00555004, "ECCENTRICITY": 0.0003719, "INCLINATION": 55.1065, "RA_OF_ASC_NODE": 155.503, "ARG_OF_PERICENTER": 355.6529, "MEAN_ANOMALY": 3.5346, "EPHEMERIS_TYPE": 0, "CLASSIFICATION_TYPE": "U", "NORAD_CAT_ID": 55268, "ELEMENT_SET_NO": 999, "REV_AT_EPOCH": 2167, "BSTAR": 0, "MEAN_MOTION_DOT": 6.8e-07, "MEAN_MOTION_DDOT": 0}, "tle": {"line1": "1 55268U 23009A   25355.45968541  .00000068  00000+0  00000+0 0  9994", "line2": "2 55268  55.1065 155.5030 0003719 355.6529   3.5346  2.00555004 21672"}}, "geometry": {"type": "Point", "coordinates": [-28.693431818214478, 5.956193080845935]}}]}